STARLINK-36780          
1 67866U 26034S   26078.64508061  .00225293  00000+0  11100-2 0  9998
2 67866  53.1593 161.3237 0000783 332.5473  27.5508 15.80979433  5516
STARLINK-36761          
1 67867U 26034T   26078.64433143  .00160554  00000+0  79849-3 0  9990
2 67867  53.1605 161.3172 0000729 353.5670   6.5344 15.80966892  5511
STARLINK-36762          
1 67868U 26034U   26079.21255626  .00455751  00000+0  21699-2 0  9998
2 67868  53.1586 158.4601 0001633 140.5152 219.5991 15.81103212  5602
STARLINK-36779          
1 67869U 26034V   26079.21181148  .00251233  00000+0  12306-2 0  9990
2 67869  53.1585 158.4560 0003046 312.5938  47.4827 15.81030852  5604
STARLINK-36770          
1 67870U 26034W   26078.64133489  .00257049  00000+0  12628-2 0  9991
2 67870  53.1591 161.2976 0001244  84.6629 275.4536 15.80954163  5517
STARLINK-36769          
1 67871U 26034X   26078.51564476  .00208707  00000+0  10335-2 0  9992
2 67871  53.1593 161.9350 0001832  90.9566 269.1667 15.80916079  5492
STARLINK-36786          
1 67872U 26034Y   26078.64057998  .00299752  00000+0  14624-2 0  9998
2 67872  53.1595 161.2919 0000785 341.9007  18.1987 15.80986973  5514
STARLINK-36783          
1 67873U 26034Z   26078.51339410  .00209339  00000+0  10354-2 0  9995
2 67873  53.1590 161.9193 0001080  78.4065 281.7079 15.80940470  5495
STARLINK-36730          
1 67874U 26034AA  26079.20806574  .00434687  00000+0  20716-2 0  9992
2 67874  53.1583 158.4294 0002119 359.1238   0.9781 15.81137152  5606
STARLINK-36727          
1 67875U 26034AB  26079.01765030  .00382653  00000+0  18421-2 0  9998
2 67875  53.1576 159.3745 0003768  87.3743 272.7711 15.81053388  5578
STARLINK-36743          
1 67876U 26034AC  26078.51114436  .00280650  00000+0  13773-2 0  9990
2 67876  53.1594 161.9039 0001338  67.3857 292.7308 15.80911012  5490
STARLINK-36784          
1 67877U 26034AD  26079.25003472 -.01888623  00000+0 -16089-1 0  9999
2 67877  53.1596 158.2579 0001319  91.3154 128.9217 15.72284283  5557
STARLINK-36689          
1 67878U 26034AE  26079.20505790  .00270879  00000+0  13252-2 0  9990
2 67878  53.1588 158.4095 0001127 111.0097 249.1047 15.81006412  5606
STARLINK-36818          
1 67879U 26035A   26078.79938550  .00185553  00000+0  12157-2 0  9996
2 67879  97.2873  11.6752 0001817 123.9865 236.1573 15.75234420  5430
STARLINK-36821          
1 67880U 26035B   26079.24123983  .00210045  00000+0  13700-2 0  9995
2 67880  97.2874  12.1459 0001193  31.0916 329.0420 15.75269340  5506
STARLINK-36808          
1 67881U 26035C   26079.28534088  .00395779  00000+0  19593-2 0  9996
2 67881  97.2884  12.2376 0001144  77.0282 283.1114 15.80987300  5519
